start=new Date('2022-08-16T00:00:00.000Z').valueOf();
sats=[{"OBJECT_TYPE":"PAYLOAD","SEMIMAJOR_AXIS":"6925.358","BSTAR":"0.00030925000000","OBJECT_ID":"2021-038E","GP_ID":"210298226","MEAN_ELEMENT_THEORY":"SGP4","CLASSIFICATION_TYPE":"U","ARG_OF_PERICENTER":"74.7491","PERIOD":"95.592","RA_OF_ASC_NODE":"85.7789","TIME_SYSTEM":"UTC","ELEMENT_SET_NO":"999","TLE_LINE1":"1 48357U 21038E   22227.86388795  .00004327  00000-0  30925-3 0  9998","REV_AT_EPOCH":"7081","EPHEMERIS_TYPE":"0","MEAN_ANOMALY":"285.3640","SITE":"AFETR","CENTER_NAME":"EARTH","LAUNCH_DATE":"2021-05-04","MEAN_MOTION_DDOT":"0.0000000000000","DECAY_DATE":null,"TLE_LINE2":"2 48357  53.0548  85.7789 0001284  74.7491 285.3640 15.06397060 70816","APOAPSIS":"548.112","COUNTRY_CODE":"US","MEAN_MOTION_DOT":"0.00004327","MEAN_MOTION":"15.06397060","EPOCH":"2022-08-15T20:43:59.918880","ECCENTRICITY":"0.00012840","OBJECT_NAME":"STARLINK-2636","PERIAPSIS":"546.333","REF_FRAME":"TEME","FILE":"3537378","INCLINATION":"53.0548","RCS_SIZE":"LARGE","NORAD_CAT_ID":"48357"},{"EPHEMERIS_TYPE":"0","REV_AT_EPOCH":"7077","TLE_LINE1":"1 48358U 21038F   22227.65841320  .00007977  00000-0  55374-3 0  9993","DECAY_DATE":null,"MEAN_MOTION_DDOT":"0.0000000000000","LAUNCH_DATE":"2021-05-04","CENTER_NAME":"EARTH","SITE":"AFETR","MEAN_ANOMALY":"288.5231","CLASSIFICATION_TYPE":"U","MEAN_ELEMENT_THEORY":"SGP4","GP_ID":"210298478","OBJECT_ID":"2021-038F","OBJECT_TYPE":"PAYLOAD","SEMIMAJOR_AXIS":"6925.329","BSTAR":"0.00055374000000","ELEMENT_SET_NO":"999","TIME_SYSTEM":"UTC","RA_OF_ASC_NODE":"86.6614","PERIOD":"95.592","ARG_OF_PERICENTER":"71.5917","FILE":"3537378","REF_FRAME":"TEME","NORAD_CAT_ID":"48358","RCS_SIZE":"LARGE","INCLINATION":"53.0541","MEAN_MOTION_DOT":"0.00007977","COUNTRY_CODE":"US","APOAPSIS":"548.205","TLE_LINE2":"2 48358  53.0541  86.6614 0001460  71.5917 288.5231 15.06406319 70775","PERIAPSIS":"546.183","OBJECT_NAME":"STARLINK-2624","ECCENTRICITY":"0.00014600","MEAN_MOTION":"15.06406319","EPOCH":"2022-08-15T15:48:06.900480"},{"TLE_LINE2":"2 48359  53.0551  86.9849 0001521  78.5167 281.5993 15.06392029 70761","APOAPSIS":"548.291","COUNTRY_CODE":"US","MEAN_MOTION_DOT":"0.00002509","EPOCH":"2022-08-15T14:07:15.842784","MEAN_MOTION":"15.06392029","PERIAPSIS":"546.185","ECCENTRICITY":"0.00015210","OBJECT_NAME":"STARLINK-2628","REF_FRAME":"TEME","FILE":"3537378","RCS_SIZE":"LARGE","NORAD_CAT_ID":"48359","INCLINATION":"53.0551","SEMIMAJOR_AXIS":"6925.373","OBJECT_TYPE":"PAYLOAD","BSTAR":"0.00018732000000","CLASSIFICATION_TYPE":"U","OBJECT_ID":"2021-038G","MEAN_ELEMENT_THEORY":"SGP4","GP_ID":"210299220","RA_OF_ASC_NODE":"86.9849","ARG_OF_PERICENTER":"78.5167","PERIOD":"95.593","ELEMENT_SET_NO":"999","TIME_SYSTEM":"UTC","TLE_LINE1":"1 48359U 21038G   22227.58837781  .00002509  00000-0  18732-3 0  9995","EPHEMERIS_TYPE":"0","REV_AT_EPOCH":"7076","MEAN_ANOMALY":"281.5993","MEAN_MOTION_DDOT":"0.0000000000000","DECAY_DATE":null,"SITE":"AFETR","LAUNCH_DATE":"2021-05-04","CENTER_NAME":"EARTH"},{"EPOCH":"2022-08-15T18:48:34.578720","MEAN_MOTION":"15.06395293","PERIAPSIS":"546.136","OBJECT_NAME":"STARLINK-2622","ECCENTRICITY":"0.00015770","APOAPSIS":"548.320","TLE_LINE2":"2 48360  53.0545  86.1144 0001577  82.5570 277.5598 15.06395293 70795","MEAN_MOTION_DOT":"0.00003446","COUNTRY_CODE":"US","NORAD_CAT_ID":"48360","RCS_SIZE":"LARGE","INCLINATION":"53.0545","REF_FRAME":"TEME","FILE":"3537378","RA_OF_ASC_NODE":"86.1144","PERIOD":"95.592","ARG_OF_PERICENTER":"82.5570","ELEMENT_SET_NO":"999","TIME_SYSTEM":"UTC","BSTAR":"0.00025014000000","OBJECT_TYPE":"PAYLOAD","SEMIMAJOR_AXIS":"6925.363","CLASSIFICATION_TYPE":"U","MEAN_ELEMENT_THEORY":"SGP4","GP_ID":"210297477","OBJECT_ID":"2021-038H","MEAN_ANOMALY":"277.5598","DECAY_DATE":null,"MEAN_MOTION_DDOT":"0.0000000000000","LAUNCH_DATE":"2021-05-04","CENTER_NAME":"EARTH","SITE":"AFETR","TLE_LINE1":"1 48360U 21038H   22227.78373355  .00003446  00000-0  25014-3 0  9993","EPHEMERIS_TYPE":"0","REV_AT_EPOCH":"7079"},{"MEAN_MOTION_DOT":"0.00000278","COUNTRY_CODE":"US","APOAPSIS":"548.228","TLE_LINE2":"2 48361  53.0561  86.1167 0001471 101.2417 258.8738 15.06401473 70797","PERIAPSIS":"546.190","OBJECT_NAME":"STARLINK-2591","ECCENTRICITY":"0.00014710","MEAN_MOTION":"15.06401473","EPOCH":"2022-08-15T18:43:15.356640","FILE":"3537378","REF_FRAME":"TEME","NORAD_CAT_ID":"48361","RCS_SIZE":"LARGE","INCLINATION":"53.0561","CLASSIFICATION_TYPE":"U","MEAN_ELEMENT_THEORY":"SGP4","GP_ID":"210297727","OBJECT_ID":"2021-038J","SEMIMAJOR_AXIS":"6925.344","OBJECT_TYPE":"PAYLOAD","BSTAR":"0.00003758800000","ELEMENT_SET_NO":"999","TIME_SYSTEM":"UTC","RA_OF_ASC_NODE":"86.1167","PERIOD":"95.592","ARG_OF_PERICENTER":"101.2417","EPHEMERIS_TYPE":"0","REV_AT_EPOCH":"7079","TLE_LINE1":"1 48361U 21038J   22227.78003885  .00000278  00000-0  37588-4 0  9992","DECAY_DATE":null,"MEAN_MOTION_DDOT":"0.0000000000000","CENTER_NAME":"EARTH","LAUNCH_DATE":"2021-05-04","SITE":"AFETR","MEAN_ANOMALY":"258.8738"},{"TLE_LINE2":"2 48362  53.0531  85.7542 0001492  84.0443 276.0716 15.06401206 70812","APOAPSIS":"548.243","COUNTRY_CODE":"US","MEAN_MOTION_DOT":"0.00003114","EPOCH":"2022-08-15T21:06:35.639424","MEAN_MOTION":"15.06401206","PERIAPSIS":"546.177","ECCENTRICITY":"0.00014920","OBJECT_NAME":"STARLINK-2578","REF_FRAME":"TEME","FILE":"3537378","RCS_SIZE":"LARGE","NORAD_CAT_ID":"48362","INCLINATION":"53.0531","OBJECT_TYPE":"PAYLOAD","SEMIMAJOR_AXIS":"6925.345","BSTAR":"0.00022785000000","CLASSIFICATION_TYPE":"U","OBJECT_ID":"2021-038K","GP_ID":"210298978","MEAN_ELEMENT_THEORY":"SGP4","RA_OF_ASC_NODE":"85.7542","ARG_OF_PERICENTER":"84.0443","PERIOD":"95.592","ELEMENT_SET_NO":"999","TIME_SYSTEM":"UTC","TLE_LINE1":"1 48362U 21038K   22227.87957916  .00003114  00000-0  22785-3 0  9990","EPHEMERIS_TYPE":"0","REV_AT_EPOCH":"7081","MEAN_ANOMALY":"276.0716","MEAN_MOTION_DDOT":"0.0000000000000","DECAY_DATE":null,"SITE":"AFETR","LAUNCH_DATE":"2021-05-04","CENTER_NAME":"EARTH"},{"MEAN_ANOMALY":"260.7286","MEAN_MOTION_DDOT":"0.0000000000000","DECAY_DATE":null,"SITE":"AFETR","LAUNCH_DATE":"2021-05-04","CENTER_NAME":"EARTH","TLE_LINE1":"1 48363U 21038L   22227.88924643  .00002610  00000-0  19410-3 0  9994","EPHEMERIS_TYPE":"0","REV_AT_EPOCH":"7088","RA_OF_ASC_NODE":"80.6350","ARG_OF_PERICENTER":"99.3864","PERIOD":"95.593","ELEMENT_SET_NO":"999","TIME_SYSTEM":"UTC","SEMIMAJOR_AXIS":"6925.380","OBJECT_TYPE":"PAYLOAD","BSTAR":"0.00019410000000","CLASSIFICATION_TYPE":"U","OBJECT_ID":"2021-038L","GP_ID":"210298721","MEAN_ELEMENT_THEORY":"SGP4","RCS_SIZE":"LARGE","NORAD_CAT_ID":"48363","INCLINATION":"53.0559","REF_FRAME":"TEME","FILE":"3537378","EPOCH":"2022-08-15T21:20:30.891552","MEAN_MOTION":"15.06389867","PERIAPSIS":"546.254","ECCENTRICITY":"0.00014300","OBJECT_NAME":"STARLINK-2626","TLE_LINE2":"2 48363  53.0559  80.6350 0001430  99.3864 260.7286 15.06389867 70889","APOAPSIS":"548.235","COUNTRY_CODE":"US","MEAN_MOTION_DOT":"0.00002610"},{"INCLINATION":"53.0551","RCS_SIZE":"LARGE","NORAD_CAT_ID":"48364","FILE":"3537378","REF_FRAME":"TEME","ECCENTRICITY":"0.00014540","OBJECT_NAME":"STARLINK-2611","PERIAPSIS":"546.232","EPOCH":"2022-08-15T13:44:04.674048","MEAN_MOTION":"15.06391598","COUNTRY_CODE":"US","MEAN_MOTION_DOT":"0.00002376","TLE_LINE2":"2 48364  53.0551  82.2549 0001454  74.8550 285.2600 15.06391598 70837","APOAPSIS":"548.246","SITE":"AFETR","LAUNCH_DATE":"2021-05-04","CENTER_NAME":"EARTH","MEAN_MOTION_DDOT":"0.0000000000000","DECAY_DATE":null,"MEAN_ANOMALY":"285.2600","REV_AT_EPOCH":"7083","EPHEMERIS_TYPE":"0","TLE_LINE1":"1 48364U 21038M   22227.57227632  .00002376  00000-0  17838-3 0  9996","TIME_SYSTEM":"UTC","ELEMENT_SET_NO":"999","ARG_OF_PERICENTER":"74.8550","PERIOD":"95.593","RA_OF_ASC_NODE":"82.2549","OBJECT_ID":"2021-038M","GP_ID":"210297977","MEAN_ELEMENT_THEORY":"SGP4","CLASSIFICATION_TYPE":"U","OBJECT_TYPE":"PAYLOAD","SEMIMAJOR_AXIS":"6925.374","BSTAR":"0.00017838000000"},{"MEAN_MOTION_DOT":"0.00001874","COUNTRY_CODE":"US","APOAPSIS":"548.162","TLE_LINE2":"2 48365  53.0540  80.7484 0001323  88.3185 271.7955 15.06389451 70889","PERIAPSIS":"546.330","OBJECT_NAME":"STARLINK-2608","ECCENTRICITY":"0.00013230","EPOCH":"2022-08-15T20:43:21.268704","MEAN_MOTION":"15.06389451","FILE":"3537378","REF_FRAME":"TEME","NORAD_CAT_ID":"48365","RCS_SIZE":"LARGE","INCLINATION":"53.0540","CLASSIFICATION_TYPE":"U","GP_ID":"210298227","MEAN_ELEMENT_THEORY":"SGP4","OBJECT_ID":"2021-038N","OBJECT_TYPE":"PAYLOAD","BSTAR":"0.00014469000000","SEMIMAJOR_AXIS":"6925.381","ELEMENT_SET_NO":"999","TIME_SYSTEM":"UTC","RA_OF_ASC_NODE":"80.7484","PERIOD":"95.593","ARG_OF_PERICENTER":"88.3185","EPHEMERIS_TYPE":"0","REV_AT_EPOCH":"7088","TLE_LINE1":"1 48365U 21038N   22227.86344061  .00001874  00000-0  14469-3 0  9994","DECAY_DATE":null,"MEAN_MOTION_DDOT":"0.0000000000000","LAUNCH_DATE":"2021-05-04","CENTER_NAME":"EARTH","SITE":"AFETR","MEAN_ANOMALY":"271.7955"},{"LAUNCH_DATE":"2021-05-04","CENTER_NAME":"EARTH","SITE":"AFETR","DECAY_DATE":null,"MEAN_MOTION_DDOT":"0.0000000000000","MEAN_ANOMALY":"260.3933","REV_AT_EPOCH":"7153","EPHEMERIS_TYPE":"0","TLE_LINE1":"1 48366U 21038P   22227.85099739  .00003281  00000-0  23906-3 0  9993","TIME_SYSTEM":"UTC","ELEMENT_SET_NO":"999","PERIOD":"95.592","ARG_OF_PERICENTER":"99.7225","RA_OF_ASC_NODE":"75.8139","MEAN_ELEMENT_THEORY":"SGP4","GP_ID":"210274339","OBJECT_ID":"2021-038P","CLASSIFICATION_TYPE":"U","SEMIMAJOR_AXIS":"6925.340","OBJECT_TYPE":"PAYLOAD","BSTAR":"0.00023906000000","INCLINATION":"53.0534","NORAD_CAT_ID":"48366","RCS_SIZE":"LARGE","FILE":"3537263","REF_FRAME":"TEME","OBJECT_NAME":"STARLINK-2631","ECCENTRICITY":"0.00014910","PERIAPSIS":"546.172","MEAN_MOTION":"15.06402889","EPOCH":"2022-08-15T20:25:26.174496","MEAN_MOTION_DOT":"0.00003281","COUNTRY_CODE":"US","APOAPSIS":"548.237","TLE_LINE2":"2 48366  53.0534  75.8139 0001491  99.7225 260.3933 15.06402889 71536"}];
